[{"OBJECT_NAME":"STARLINK-35750","OBJECT_ID":"2025-244D","EPOCH":"2026-03-09T18:10:47.607744","MEAN_MOTION":15.30194327,"ECCENTRICITY":0.00010834,"INCLINATION":53.1591,"RA_OF_ASC_NODE":229.3372,"ARG_OF_PERICENTER":80.4062,"MEAN_ANOMALY":279.7061,"EPHEMERIS_TYPE":0,"CLASSIFICATION_TYPE":"U","NORAD_CAT_ID":66209,"ELEMENT_SET_NO":999,"REV_AT_EPOCH":2167,"BSTAR":0.00095626258,"MEAN_MOTION_DOT":0.00028065,"MEAN_MOTION_DDOT":0},{"OBJECT_NAME":"ELECTRON KICK STAGE R\/B","OBJECT_ID":"2022-147B","EPOCH":"2026-03-09T22:28:20.187264","MEAN_MOTION":15.28920172,"ECCENTRICITY":0.00095089,"INCLINATION":97.642,"RA_OF_ASC_NODE":85.1135,"ARG_OF_PERICENTER":110.4683,"MEAN_ANOMALY":249.7578,"EPHEMERIS_TYPE":0,"CLASSIFICATION_TYPE":"U","NORAD_CAT_ID":54228,"ELEMENT_SET_NO":999,"REV_AT_EPOCH":18390,"BSTAR":0.00083201931,"MEAN_MOTION_DOT":0.00023374,"MEAN_MOTION_DDOT":0}]
